[{"OBJECT_NAME":"DUBAISAT-2","OBJECT_ID":"2013-066D","EPOCH":"2026-03-09T22:07:51.982752","MEAN_MOTION":15.09361694,"ECCENTRICITY":0.00120191,"INCLINATION":97.4538,"RA_OF_ASC_NODE":61.7474,"ARG_OF_PERICENTER":22.7165,"MEAN_ANOMALY":337.4593,"EPHEMERIS_TYPE":0,"CLASSIFICATION_TYPE":"U","NORAD_CAT_ID":39419,"ELEMENT_SET_NO":999,"REV_AT_EPOCH":67141,"BSTAR":0.00034743884,"MEAN_MOTION_DOT":5.495e-5,"MEAN_MOTION_DDOT":0},{"OBJECT_NAME":"STARLINK-3260","OBJECT_ID":"2021-125BB","EPOCH":"2026-03-09T16:05:36.785760","MEAN_MOTION":15.08837295,"ECCENTRICITY":0.0001234,"INCLINATION":53.2169,"RA_OF_ASC_NODE":209.2065,"ARG_OF_PERICENTER":80.6164,"MEAN_ANOMALY":279.4968,"EPHEMERIS_TYPE":0,"CLASSIFICATION_TYPE":"U","NORAD_CAT_ID":50205,"ELEMENT_SET_NO":999,"REV_AT_EPOCH":23715,"BSTAR":2.532015e-6,"MEAN_MOTION_DOT":-2.48e-6,"MEAN_MOTION_DDOT":0}]
